CCSDS_OMM_VERS = 2.0
CREATION_DATE  = 
ORIGINATOR     = 

OBJECT_NAME    = YOTSUBA-KULOVER
OBJECT_ID      = 1998-067XN
CENTER_NAME    = EARTH
REF_FRAME      = TEME
TIME_SYSTEM    = UTC
MEAN_ELEMENT_THEORY = SGP/SGP4

EPOCH          = 2026-02-22T05:55:29.555040
MEAN_MOTION    = 15.74632738
ECCENTRICITY   = .0005676
INCLINATION    = 51.6229
RA_OF_ASC_NODE = 137.0141
ARG_OF_PERICENTER = 346.2775
MEAN_ANOMALY   = 13.8069

EPHEMERIS_TYPE = 0
CLASSIFICATION_TYPE = U
NORAD_CAT_ID   = 65941
ELEMENT_SET_NO = 999
REV_AT_EPOCH   = 2106
BSTAR          = .10251661E-2
MEAN_MOTION_DOT = .155646E-2
MEAN_MOTION_DDOT = 0

CCSDS_OMM_VERS = 2.0
CREATION_DATE  = 
ORIGINATOR     = 

OBJECT_NAME    = BOTAN
OBJECT_ID      = 1998-067XP
CENTER_NAME    = EARTH
REF_FRAME      = TEME
TIME_SYSTEM    = UTC
MEAN_ELEMENT_THEORY = SGP/SGP4

EPOCH          = 2026-02-22T21:55:49.664928
MEAN_MOTION    = 15.98056365
ECCENTRICITY   = .00099681
INCLINATION    = 51.6128
RA_OF_ASC_NODE = 127.8670
ARG_OF_PERICENTER = 6.9595
MEAN_ANOMALY   = 353.1550

EPHEMERIS_TYPE = 0
CLASSIFICATION_TYPE = U
NORAD_CAT_ID   = 65942
ELEMENT_SET_NO = 999
REV_AT_EPOCH   = 2124
BSTAR          = .16285795E-2
MEAN_MOTION_DOT = .767216E-2
MEAN_MOTION_DDOT = .27416095E-3

CCSDS_OMM_VERS = 2.0
CREATION_DATE  = 
ORIGINATOR     = 

OBJECT_NAME    = E-KAGAKU-1
OBJECT_ID      = 1998-067XQ
CENTER_NAME    = EARTH
REF_FRAME      = TEME
TIME_SYSTEM    = UTC
MEAN_ELEMENT_THEORY = SGP/SGP4

EPOCH          = 2026-02-22T05:58:22.901952
MEAN_MOTION    = 15.74454325
ECCENTRICITY   = .00058211
INCLINATION    = 51.6254
RA_OF_ASC_NODE = 137.0417
ARG_OF_PERICENTER = 356.2346
MEAN_ANOMALY   = 3.8608

EPHEMERIS_TYPE = 0
CLASSIFICATION_TYPE = U
NORAD_CAT_ID   = 65943
ELEMENT_SET_NO = 999
REV_AT_EPOCH   = 2106
BSTAR          = .10278481E-2
MEAN_MOTION_DOT = .154841E-2
MEAN_MOTION_DDOT = 0

CCSDS_OMM_VERS = 2.0
CREATION_DATE  = 
ORIGINATOR     = 

OBJECT_NAME    = HRC MONOBLOCK CAMERA
OBJECT_ID      = 1998-067XR
CENTER_NAME    = EARTH
REF_FRAME      = TEME
TIME_SYSTEM    = UTC
MEAN_ELEMENT_THEORY = SGP/SGP4

EPOCH          = 2026-02-22T06:35:38.676480
MEAN_MOTION    = 15.60482841
ECCENTRICITY   = .00027014
INCLINATION    = 51.6278
RA_OF_ASC_NODE = 143.2265
ARG_OF_PERICENTER = 33.4485
MEAN_ANOMALY   = 326.6679

EPHEMERIS_TYPE = 0
CLASSIFICATION_TYPE = U
NORAD_CAT_ID   = 66052
ELEMENT_SET_NO = 999
REV_AT_EPOCH   = 1998
BSTAR          = .56031349E-3
MEAN_MOTION_DOT = .46806E-3
MEAN_MOTION_DDOT = 0

CCSDS_OMM_VERS = 2.0
CREATION_DATE  = 
ORIGINATOR     = 

OBJECT_NAME    = HTV-X1
OBJECT_ID      = 2025-241A
CENTER_NAME    = EARTH
REF_FRAME      = TEME
TIME_SYSTEM    = UTC
MEAN_ELEMENT_THEORY = SGP/SGP4

EPOCH          = 2026-02-22T17:36:16.529760
MEAN_MOTION    = 15.48216789
ECCENTRICITY   = .00084814
INCLINATION    = 51.6318
RA_OF_ASC_NODE = 146.2856
ARG_OF_PERICENTER = 123.1422
MEAN_ANOMALY   = 237.0381

EPHEMERIS_TYPE = 0
CLASSIFICATION_TYPE = U
NORAD_CAT_ID   = 66174
ELEMENT_SET_NO = 999
REV_AT_EPOCH   = 51
BSTAR          = .26931019E-3
MEAN_MOTION_DOT = .14029E-3
MEAN_MOTION_DDOT = 0

CCSDS_OMM_VERS = 2.0
CREATION_DATE  = 
ORIGINATOR     = 

OBJECT_NAME    = SHENZHOU-22
OBJECT_ID      = 2025-272A
CENTER_NAME    = EARTH
REF_FRAME      = TEME
TIME_SYSTEM    = UTC
MEAN_ELEMENT_THEORY = SGP/SGP4

EPOCH          = 2026-02-22T19:14:59.849376
MEAN_MOTION    = 15.60000533
ECCENTRICITY   = .00052544
INCLINATION    = 41.4667
RA_OF_ASC_NODE = 298.7008
ARG_OF_PERICENTER = 173.5718
MEAN_ANOMALY   = 186.5189

EPHEMERIS_TYPE = 0
CLASSIFICATION_TYPE = U
NORAD_CAT_ID   = 66645
ELEMENT_SET_NO = 999
REV_AT_EPOCH   = 26764
BSTAR          = .18154015E-3
MEAN_MOTION_DOT = .14798E-3
MEAN_MOTION_DDOT = 0

CCSDS_OMM_VERS = 2.0
CREATION_DATE  = 
ORIGINATOR     = 

OBJECT_NAME    = SOYUZ-MS 28
OBJECT_ID      = 2025-275A
CENTER_NAME    = EARTH
REF_FRAME      = TEME
TIME_SYSTEM    = UTC
MEAN_ELEMENT_THEORY = SGP/SGP4

EPOCH          = 2026-02-22T17:36:16.528896
MEAN_MOTION    = 15.48216789
ECCENTRICITY   = .0008481
INCLINATION    = 51.6318
RA_OF_ASC_NODE = 146.2856
ARG_OF_PERICENTER = 123.1422
MEAN_ANOMALY   = 237.0381

EPHEMERIS_TYPE = 0
CLASSIFICATION_TYPE = U
NORAD_CAT_ID   = 66664
ELEMENT_SET_NO = 999
REV_AT_EPOCH   = 55401
BSTAR          = .26931E-3
MEAN_MOTION_DOT = .14029E-3
MEAN_MOTION_DDOT = 0

CCSDS_OMM_VERS = 2.0
CREATION_DATE  = 
ORIGINATOR     = 

OBJECT_NAME    = DUPLEX
OBJECT_ID      = 1998-067XS
CENTER_NAME    = EARTH
REF_FRAME      = TEME
TIME_SYSTEM    = UTC
MEAN_ELEMENT_THEORY = SGP/SGP4

EPOCH          = 2026-02-22T22:33:25.395264
MEAN_MOTION    = 15.55164248
ECCENTRICITY   = .0001703
INCLINATION    = 51.6291
RA_OF_ASC_NODE = 143.1677
ARG_OF_PERICENTER = 71.0481
MEAN_ANOMALY   = 289.0694

EPHEMERIS_TYPE = 0
CLASSIFICATION_TYPE = U
NORAD_CAT_ID   = 66906
ELEMENT_SET_NO = 999
REV_AT_EPOCH   = 1283
BSTAR          = .49626E-3
MEAN_MOTION_DOT = .33782E-3
MEAN_MOTION_DDOT = 0

CCSDS_OMM_VERS = 2.0
CREATION_DATE  = 
ORIGINATOR     = 

OBJECT_NAME    = ISS OBJECT XT
OBJECT_ID      = 1998-067XT
CENTER_NAME    = EARTH
REF_FRAME      = TEME
TIME_SYSTEM    = UTC
MEAN_ELEMENT_THEORY = SGP/SGP4

EPOCH          = 2026-02-22T06:36:13.737600
MEAN_MOTION    = 15.64704842
ECCENTRICITY   = .00036231
INCLINATION    = 51.6255
RA_OF_ASC_NODE = 143.9742
ARG_OF_PERICENTER = 354.8184
MEAN_ANOMALY   = 5.2773

EPHEMERIS_TYPE = 0
CLASSIFICATION_TYPE = U
NORAD_CAT_ID   = 66907
ELEMENT_SET_NO = 999
REV_AT_EPOCH   = 1276
BSTAR          = .12704312E-2
MEAN_MOTION_DOT = .12725E-2
MEAN_MOTION_DDOT = 0

CCSDS_OMM_VERS = 2.0
CREATION_DATE  = 
ORIGINATOR     = 

OBJECT_NAME    = ISS OBJECT XU
OBJECT_ID      = 1998-067XU
CENTER_NAME    = EARTH
REF_FRAME      = TEME
TIME_SYSTEM    = UTC
MEAN_ELEMENT_THEORY = SGP/SGP4

EPOCH          = 2026-02-22T06:34:52.648608
MEAN_MOTION    = 15.64758148
ECCENTRICITY   = .00036244
INCLINATION    = 51.6253
RA_OF_ASC_NODE = 143.9648
ARG_OF_PERICENTER = 358.4330
MEAN_ANOMALY   = 1.6653

EPHEMERIS_TYPE = 0
CLASSIFICATION_TYPE = U
NORAD_CAT_ID   = 66908
ELEMENT_SET_NO = 999
REV_AT_EPOCH   = 1276
BSTAR          = .1284961E-2
MEAN_MOTION_DOT = .129013E-2
MEAN_MOTION_DDOT = 0

CCSDS_OMM_VERS = 2.0
CREATION_DATE  = 
ORIGINATOR     = 

OBJECT_NAME    = SILVERSAT
OBJECT_ID      = 1998-067XV
CENTER_NAME    = EARTH
REF_FRAME      = TEME
TIME_SYSTEM    = UTC
MEAN_ELEMENT_THEORY = SGP/SGP4

EPOCH          = 2026-02-22T14:49:01.435008
MEAN_MOTION    = 15.66796525
ECCENTRICITY   = .0004503
INCLINATION    = 51.6254
RA_OF_ASC_NODE = 141.7563
ARG_OF_PERICENTER = 355.2095
MEAN_ANOMALY   = 4.8857

EPHEMERIS_TYPE = 0
CLASSIFICATION_TYPE = U
NORAD_CAT_ID   = 66909
ELEMENT_SET_NO = 999
REV_AT_EPOCH   = 1282
BSTAR          = .14932E-2
MEAN_MOTION_DOT = .163517E-2
MEAN_MOTION_DDOT = 0

