YOTSUBA-KULOVER         
1 65941U 98067XN  26053.24686985  .00155646  00000+0  10252-2 0  9997
2 65941  51.6229 137.0141 0005676 346.2775  13.8069 15.74632738 21069
BOTAN                   
1 65942U 98067XP  26053.91376927  .00767216  27416-3  16286-2 0  9993
2 65942  51.6128 127.8670 0009968   6.9595 353.1550 15.98056365 21247
E-KAGAKU-1              
1 65943U 98067XQ  26053.24887618  .00154841  00000+0  10278-2 0  9999
2 65943  51.6254 137.0417 0005821 356.2346   3.8608 15.74454325 21064
HRC MONOBLOCK CAMERA    
1 66052U 98067XR  26053.27475320  .00046806  00000+0  56031-3 0  9996
2 66052  51.6278 143.2265 0002701  33.4485 326.6679 15.60482841 19985
HTV-X1                  
1 66174U 25241A   26053.73352465  .00014029  00000+0  26931-3 0  9998
2 66174  51.6318 146.2856 0008481 123.1422 237.0381 15.48216789   519
SHENZHOU-22             
1 66645U 25272A   26053.80208159  .00014798  00000+0  18154-3 0  9994
2 66645  41.4667 298.7008 0005254 173.5718 186.5189 15.60000533267645
SOYUZ-MS 28             
1 66664U 25275A   26053.73352465  .00014029  00000+0  26931-3 0  9999
2 66664  51.6318 146.2856 0008481 123.1422 237.0381 15.48216789  1288
DUPLEX                  
1 66906U 98067XS  26053.93987726  .00033782  00000+0  49626-3 0  9996
2 66906  51.6291 143.1677 0001703  71.0481 289.0694 15.55164248 12837
ISS OBJECT XT           
1 66907U 98067XT  26053.27515900  .00127250  00000+0  12704-2 0  9995
2 66907  51.6255 143.9742 0003623 354.8184   5.2773 15.64704842 12762
ISS OBJECT XU           
1 66908U 98067XU  26053.27422047  .00129013  00000+0  12850-2 0  9996
2 66908  51.6253 143.9648 0003624 358.4330   1.6653 15.64758148 12765
SILVERSAT               
1 66909U 98067XV  26053.61737772  .00163517  00000+0  14932-2 0  9999
2 66909  51.6254 141.7563 0004503 355.2095   4.8857 15.66796525 12820
